{
  "type": "FeatureCollection",
  "features": [
    {
      "type": "Feature",
      "properties": {
        "norad_id": 24876,
        "name": "GPS BIIR-2  (PRN 13)",
        "group": "gps-ops",
        "lat": 1.735693200256138,
        "lon": -75.8412310934009,
        "alt_km": 20312.827189003623,
        "timestamp": "2025-12-26T10:30:50.526263+00:00",
        "meta_object_name": "GPS BIIR-2  (PRN 13)",
        "meta_object_id": "1997-035A",
        "meta_epoch": "2025-12-25T04:43:59.116800",
        "meta_mean_motion": 2.00563692,
        "meta_eccentricity": 0.0096849,
        "meta_inclination": 55.901,
        "meta_ra_of_asc_node": 105.3817,
        "meta_arg_of_pericenter": 56.9385,
        "meta_mean_anomaly": 303.9881,
        "meta_ephemeris_type": 0,
        "meta_classification_type": "U",
        "meta_norad_cat_id": 24876,
        "meta_element_set_no": 999,
        "meta_rev_at_epoch": 20846,
        "meta_bstar": 0,
        "meta_mean_motion_dot": 2.8e-07,
        "meta_mean_motion_ddot": 0,
        "tle_line1": "1 24876U 97035A   25359.19721200  .00000028  00000+0  00000+0 0  9995",
        "tle_line2": "2 24876  55.9010 105.3817 0096849  56.9385 303.9881  2.00563692208461"
      },
      "geometry": {
        "type": "Point",
        "coordinates": [
          -75.8412310934009,
          1.735693200256138
        ]
      }
    },
    {
      "type": "Feature",
      "properties": {
        "norad_id": 26360,
        "name": "GPS BIIR-4  (PRN 20)",
        "group": "gps-ops",
        "lat": -55.034494706756405,
        "lon": -65.16056128615244,
        "alt_km": 20094.628393895906,
        "timestamp": "2025-12-26T10:30:50.526290+00:00",
        "meta_object_name": "GPS BIIR-4  (PRN 20)",
        "meta_object_id": "2000-025A",
        "meta_epoch": "2025-12-26T01:51:32.792832",
        "meta_mean_motion": 2.00566473,
        "meta_eccentricity": 0.0038892,
        "meta_inclination": 55.0531,
        "meta_ra_of_asc_node": 26.2985,
        "meta_arg_of_pericenter": 243.2554,
        "meta_mean_anomaly": 125.3529,
        "meta_ephemeris_type": 0,
        "meta_classification_type": "U",
        "meta_norad_cat_id": 26360,
        "meta_element_set_no": 999,
        "meta_rev_at_epoch": 18780,
        "meta_bstar": 0,
        "meta_mean_motion_dot": -5.6e-07,
        "meta_mean_motion_ddot": 0,
        "tle_line1": "1 26360U 00025A   25360.07746288 -.00000056  00000+0  00000+0 0  9992",
        "tle_line2": "2 26360  55.0531  26.2985 0038892 243.2554 125.3529  2.00566473187809"
      },
      "geometry": {
        "type": "Point",
        "coordinates": [
          -65.16056128615244,
          -55.034494706756405
        ]
      }
    },
    {
      "type": "Feature",
      "properties": {
        "norad_id": 26407,
        "name": "GPS BIIR-5  (PRN 22)",
        "group": "gps-ops",
        "lat": 50.659291247808376,
        "lon": -17.07656096153194,
        "alt_km": 20499.43438665199,
        "timestamp": "2025-12-26T10:30:50.526307+00:00",
        "meta_object_name": "GPS BIIR-5  (PRN 22)",
        "meta_object_id": "2000-040A",
        "meta_epoch": "2025-12-26T00:40:29.483328",
        "meta_mean_motion": 2.00568075,
        "meta_eccentricity": 0.0125298,
        "meta_inclination": 54.8879,
        "meta_ra_of_asc_node": 222.0405,
        "meta_arg_of_pericenter": 302.0168,
        "meta_mean_anomaly": 230.6672,
        "meta_ephemeris_type": 0,
        "meta_classification_type": "U",
        "meta_norad_cat_id": 26407,
        "meta_element_set_no": 999,
        "meta_rev_at_epoch": 18647,
        "meta_bstar": 0,
        "meta_mean_motion_dot": 7.1e-07,
        "meta_mean_motion_ddot": 0,
        "tle_line1": "1 26407U 00040A   25360.02811902  .00000071  00000+0  00000+0 0  9998",
        "tle_line2": "2 26407  54.8879 222.0405 0125298 302.0168 230.6672  2.00568075186479"
      },
      "geometry": {
        "type": "Point",
        "coordinates": [
          -17.07656096153194,
          50.659291247808376
        ]
      }
    },
    {
      "type": "Feature",
      "properties": {
        "norad_id": 27663,
        "name": "GPS BIIR-8  (PRN 16)",
        "group": "gps-ops",
        "lat": -47.50526498950836,
        "lon": 91.91903032290506,
        "alt_km": 20570.85109833692,
        "timestamp": "2025-12-26T10:30:50.526321+00:00",
        "meta_object_name": "GPS BIIR-8  (PRN 16)",
        "meta_object_id": "2003-005A",
        "meta_epoch": "2025-12-24T14:50:30.961824",
        "meta_mean_motion": 2.00570207,
        "meta_eccentricity": 0.01478624,
        "meta_inclination": 54.9207,
        "meta_ra_of_asc_node": 221.9058,
        "meta_arg_of_pericenter": 51.9747,
        "meta_mean_anomaly": 318.7946,
        "meta_ephemeris_type": 0,
        "meta_classification_type": "U",
        "meta_norad_cat_id": 27663,
        "meta_element_set_no": 999,
        "meta_rev_at_epoch": 16781,
        "meta_bstar": 0,
        "meta_mean_motion_dot": 6.6e-07,
        "meta_mean_motion_ddot": 0,
        "tle_line1": "1 27663U 03005A   25358.61841391  .00000066  00000+0  00000+0 0  9998",
        "tle_line2": "2 27663  54.9207 221.9058 0147862  51.9747 318.7946  2.00570207167815"
      },
      "geometry": {
        "type": "Point",
        "coordinates": [
          91.91903032290506,
          -47.50526498950836
        ]
      }
    },
    {
      "type": "Feature",
      "properties": {
        "norad_id": 28190,
        "name": "GPS BIIR-11 (PRN 19)",
        "group": "gps-ops",
        "lat": 33.14859468640092,
        "lon": -50.11641910042063,
        "alt_km": 20346.044964210527,
        "timestamp": "2025-12-26T10:30:50.526334+00:00",
        "meta_object_name": "GPS BIIR-11 (PRN 19)",
        "meta_object_id": "2004-009A",
        "meta_epoch": "2025-12-26T01:56:36.259008",
        "meta_mean_motion": 2.00560231,
        "meta_eccentricity": 0.0108597,
        "meta_inclination": 54.9736,
        "meta_ra_of_asc_node": 282.6813,
        "meta_arg_of_pericenter": 167.8636,
        "meta_mean_anomaly": 337.216,
        "meta_ephemeris_type": 0,
        "meta_classification_type": "U",
        "meta_norad_cat_id": 28190,
        "meta_element_set_no": 999,
        "meta_rev_at_epoch": 15947,
        "meta_bstar": 0,
        "meta_mean_motion_dot": -3e-07,
        "meta_mean_motion_ddot": 0,
        "tle_line1": "1 28190U 04009A   25360.08097522 -.00000030  00000+0  00000+0 0  9994",
        "tle_line2": "2 28190  54.9736 282.6813 0108597 167.8636 337.2160  2.00560231159470"
      },
      "geometry": {
        "type": "Point",
        "coordinates": [
          -50.11641910042063,
          33.14859468640092
        ]
      }
    },
    {
      "type": "Feature",
      "properties": {
        "norad_id": 28474,
        "name": "GPS BIIR-13 (PRN 02)",
        "group": "gps-ops",
        "lat": 52.73750662192134,
        "lon": 85.97557411731138,
        "alt_km": 20584.67298009075,
        "timestamp": "2025-12-26T10:30:50.526347+00:00",
        "meta_object_name": "GPS BIIR-13 (PRN 02)",
        "meta_object_id": "2004-045A",
        "meta_epoch": "2025-12-25T06:51:33.526944",
        "meta_mean_motion": 2.00570039,
        "meta_eccentricity": 0.0170989,
        "meta_inclination": 55.2344,
        "meta_ra_of_asc_node": 331.9013,
        "meta_arg_of_pericenter": 309.8108,
        "meta_mean_anomaly": 41.6127,
        "meta_ephemeris_type": 0,
        "meta_classification_type": "U",
        "meta_norad_cat_id": 28474,
        "meta_element_set_no": 999,
        "meta_rev_at_epoch": 15493,
        "meta_bstar": 0,
        "meta_mean_motion_dot": -5.9e-07,
        "meta_mean_motion_ddot": 0,
        "tle_line1": "1 28474U 04045A   25359.28580471 -.00000059  00000+0  00000+0 0  9990",
        "tle_line2": "2 28474  55.2344 331.9013 0170989 309.8108  41.6127  2.00570039154932"
      },
      "geometry": {
        "type": "Point",
        "coordinates": [
          85.97557411731138,
          52.73750662192134
        ]
      }
    },
    {
      "type": "Feature",
      "properties": {
        "norad_id": 28874,
        "name": "GPS BIIRM-1 (PRN 17)",
        "group": "gps-ops",
        "lat": 47.39538037688383,
        "lon": -30.366617167473272,
        "alt_km": 20396.392906583224,
        "timestamp": "2025-12-26T10:30:50.526359+00:00",
        "meta_object_name": "GPS BIIRM-1 (PRN 17)",
        "meta_object_id": "2005-038A",
        "meta_epoch": "2025-12-24T20:45:31.120992",
        "meta_mean_motion": 2.00577585,
        "meta_eccentricity": 0.0131256,
        "meta_inclination": 55.0211,
        "meta_ra_of_asc_node": 280.2128,
        "meta_arg_of_pericenter": 293.8377,
        "meta_mean_anomaly": 72.9738,
        "meta_ephemeris_type": 0,
        "meta_classification_type": "U",
        "meta_norad_cat_id": 28874,
        "meta_element_set_no": 999,
        "meta_rev_at_epoch": 14834,
        "meta_bstar": 0,
        "meta_mean_motion_dot": -2.3e-07,
        "meta_mean_motion_ddot": 0,
        "tle_line1": "1 28874U 05038A   25358.86494353 -.00000023  00000+0  00000+0 0  9994",
        "tle_line2": "2 28874  55.0211 280.2128 0131256 293.8377  72.9738  2.00577585148340"
      },
      "geometry": {
        "type": "Point",
        "coordinates": [
          -30.366617167473272,
          47.39538037688383
        ]
      }
    }
  ]
}